{
"type": "FeatureCollection",
"name": "supports",
"crs": { "type": "name", "properties": { "name": "urn:ogc:def:crs:OGC:1.3:CRS84" } },
"features": [
{ "type": "Feature", "properties": { "station": "Rozumivka", "support": "SWOT RiverSP (V3)", "radius_km": 3.0 }, "geometry": { "type": "Polygon", "coordinates": [ [ [ 35.188901170966354, 47.770451583054516 ], [ 35.188597536159115, 47.767811448915936 ], [ 35.187911577415761, 47.765204086873347 ], [ 35.186849955314507, 47.762654599663705 ], [ 35.185422943045566, 47.760187529288103 ], [ 35.183644325588375, 47.757826621080959 ], [ 35.181531265342869, 47.75559459556451 ], [ 35.179104135570178, 47.753512930264932 ], [ 35.176386323295574, 47.751601653567377 ], [ 35.173404003605505, 47.749879152568354 ], [ 35.170185887530039, 47.748361996747825 ], [ 35.166762945940128, 47.74706477913027 ], [ 35.163168112102746, 47.745999976436607 ], [ 35.159435965726978, 47.745177829547039 ], [ 35.155602401497362, 47.744606245402622 ], [ 35.151704285226934, 47.744290721270069 ], [ 35.147779100871176, 47.744234292083462 ], [ 35.143864591723819, 47.744437501359059 ], [ 35.139998399166267, 47.744898395958195 ], [ 35.13621770236432, 47.745612544748298 ], [ 35.132558862297707, 47.746573080988604 ], [ 35.129057073470996, 47.747770768042891 ], [ 35.125746026587812, 47.749194087802529 ], [ 35.122657585375123, 47.750829350988582 ], [ 35.119821480620665, 47.752660828294445 ], [ 35.117265024335289, 47.754670901132464 ], [ 35.115012846774228, 47.756840230560961 ], [ 35.113086658847472, 47.759147942793476 ], [ 35.11150504222212, 47.761571829531903 ], [ 35.110283269168427, 47.764088561220575 ], [ 35.109433153930695, 47.766673911191859 ], [ 35.108962937113048, 47.76930298856481 ], [ 35.108877204264068, 47.771950477670146 ], [ 35.109176839522817, 47.774590881706985 ], [ 35.109859014856809, 47.777198768290411 ], [ 35.110917215081962, 47.779749014525692 ], [ 35.11234129850876, 47.782217049242846 ], [ 35.114117592711501, 47.784579090048403 ], [ 35.116229024571702, 47.786812372895049 ], [ 35.118655283406291, 47.788895371938146 ], [ 35.121373015659849, 47.790808007537571 ], [ 35.124356049321321, 47.792531840374949 ], [ 35.127575645923272, 47.794050249788533 ], [ 35.131000777699136, 47.79534859457889 ], [ 35.134598427214407, 47.796414354708482 ], [ 35.138333906555083, 47.797237252503315 ], [ 35.142171192952581, 47.797809352165409 ], [ 35.146073277552915, 47.798125136616939 ], [ 35.150002523899701, 47.798181560919936 ], [ 35.153921032598994, 47.797978081745775 ], [ 35.157791008568644, 47.797516662605233 ], [ 35.161575127248284, 47.796801754788696 ], [ 35.165236896157246, 47.795840254205963 ], [ 35.168741008237205, 47.794641434552432 ], [ 35.172053683503279, 47.79321685746195 ], [ 35.175142995650774, 47.791580260531994 ], [ 35.177979180422625, 47.789747424324212 ], [ 35.180534922733159, 47.787736019648136 ], [ 35.182785619765006, 47.785565436627174 ], [ 35.184709617504218, 47.783256597222639 ], [ 35.186288418451483, 47.780831753049164 ], [ 35.187506858541461, 47.778314270456079 ], [ 35.188353251613741, 47.775728404967765 ], [ 35.188819500104771, 47.773099067276192 ], [ 35.188901170966354, 47.770451583054516 ] ] ] } },
{ "type": "Feature", "properties": { "station": "Kherson", "support": "SWOT RiverSP (V6)", "radius_km": 3.0 }, "geometry": { "type": "Polygon", "coordinates": [ [ [ 32.651211404535438, 46.623876169866932 ], [ 32.651039718592607, 46.621229368992203 ], [ 32.650492360354271, 46.61860690472605 ], [ 32.649574653979528, 46.616034027691647 ], [ 32.648295486273724, 46.61353550754157 ], [ 32.646667219231986, 46.611135394742803 ], [ 32.644705569341632, 46.608856789406012 ], [ 32.642429454868768, 46.606721619368464 ], [ 32.639860812651484, 46.604750429646167 ], [ 32.637024386202455, 46.602962185259194 ], [ 32.633947487185637, 46.60137408930256 ], [ 32.630659732572681, 46.600001417987308 ], [ 32.627192760002956, 46.598857374213267 ], [ 32.623579924065957, 46.597952961057068 ], [ 32.619855976393453, 46.597296876369349 ], [ 32.616056732592057, 46.596895429474912 ], [ 32.612218729162038, 46.596752480760166 ], [ 32.608378873636063, 46.596869404716337 ], [ 32.604574091230404, 46.597245076785988 ], [ 32.600840971331749, 46.597875884136371 ], [ 32.597215417143914, 46.598755760257767 ], [ 32.593732301791299, 46.599876243061487 ], [ 32.590425134119251, 46.601226555930012 ], [ 32.587325737347001, 46.602793710955943 ], [ 32.584463943615546, 46.604562633396291 ], [ 32.581867307332857, 46.606516306167329 ], [ 32.57956084005221, 46.608635933014831 ], [ 32.57756676942725, 46.610901118815264 ], [ 32.575904324571425, 46.613290065299296 ], [ 32.574589549910606, 46.615779780339054 ], [ 32.573635149358147, 46.618346298808298 ], [ 32.573050362362814, 46.620964912910445 ], [ 32.572840873084743, 46.623610409774088 ], [ 32.573008753644658, 46.626257314041894 ], [ 32.573552442069854, 46.628880133125023 ], [ 32.574466755229935, 46.631453602764914 ], [ 32.575742936718768, 46.633952930535557 ], [ 32.57736873929985, 46.636354034933568 ], [ 32.579328541193732, 46.638633777741731 ], [ 32.58160349515186, 46.640770187410475 ], [ 32.58417170893425, 46.642742671285433 ], [ 32.587008455492906, 46.644532214612994 ], [ 32.590086410862419, 46.6461215643806 ], [ 32.593375917476273, 46.647495396193918 ], [ 32.596845270366771, 46.64864046255579 ], [ 32.600461023470089, 46.649545721092046 ], [ 32.604188313049342, 46.65020244146455 ], [ 32.607991195070227, 46.650604289919436 ], [ 32.611832993217575, 46.650747390638536 ], [ 32.615676654129693, 46.650630363289167 ], [ 32.61948510635127, 46.650254336402092 ], [ 32.623221619466484, 46.64962293644556 ], [ 32.626850159871999, 46.648742252702831 ], [ 32.630335739684718, 46.647620778299064 ], [ 32.633644755351483, 46.646269327958471 ], [ 32.636745312635782, 46.644700933300896 ], [ 32.639607534798941, 46.64293071670771 ], [ 32.642203850968777, 46.640975744996204 ], [ 32.644509261893951, 46.638854864338171 ], [ 32.64650158051613, 46.636588518040334 ], [ 32.648161645050465, 46.634198548969266 ], [ 32.649473502545518, 46.631707988550232 ], [ 32.650424561192978, 46.629140834396893 ], [ 32.651005709971507, 46.626521818734759 ], [ 32.651211404535438, 46.623876169866932 ] ] ] } },
{ "type": "Feature", "properties": { "station": "Kherson", "support": "ICESat-2 (V6)", "radius_km": 10.0 }, "geometry": { "type": "Polygon", "coordinates": [ [ [ 32.742644937260053, 46.624118374681679 ], [ 32.742057858131155, 46.615296127801109 ], [ 32.740219078268709, 46.60655597939887 ], [ 32.737146891665148, 46.597982043924063 ], [ 32.732871425484682, 46.589656797268873 ], [ 32.727434329280705, 46.581660286208354 ], [ 32.720888355811432, 46.574069362530921 ], [ 32.713296838172099, 46.566956949038953 ], [ 32.704733068833448, 46.56039134425194 ], [ 32.695279586975055, 46.55443557223969 ], [ 32.685027381223755, 46.549146783557383 ], [ 32.674075015553569, 46.544575712751737 ], [ 32.662527686672185, 46.540766197363432 ], [ 32.65049622171238, 46.537754762770938 ], [ 32.638096025465508, 46.535570276609398 ], [ 32.625445986739912, 46.534233675860222 ], [ 32.612667353701568, 46.533757769048506 ], [ 32.599882588259405, 46.534147115309409 ], [ 32.587214209693947, 46.535397981397566 ], [ 32.574783637797353, 46.537498377019162 ], [ 32.562710045795043, 46.540428168169761 ], [ 32.551109233254941, 46.544159267465808 ], [ 32.540092529058306, 46.548655899771198 ], [ 32.52976573430707, 46.553874940742681 ], [ 32.520228114773012, 46.559766325259396 ], [ 32.511571452154818, 46.566273522061785 ], [ 32.503879162996732, 46.573334070312946 ], [ 32.497225493636442, 46.580880173212762 ], [ 32.491674798988441, 46.588839343249141 ], [ 32.487280912331421, 46.597135093164852 ], [ 32.484086612554549, 46.605687666259222 ], [ 32.482123194527581, 46.614414799235156 ], [ 32.481410147396829, 46.623232510449476 ], [ 32.481954944674698, 46.632055906132344 ], [ 32.483752948991096, 46.640799996915014 ], [ 32.486787433315513, 46.649380516847934 ], [ 32.4910297193479, 46.657714737006529 ], [ 32.4964394326243, 46.665722265774541 ], [ 32.502964872700964, 46.673325827964874 ], [ 32.510543495581757, 46.680452015088939 ], [ 32.519102504353064, 46.687031999317576 ], [ 32.52855954280372, 46.693002203988378 ], [ 32.538823485651712, 46.698304923906193 ], [ 32.549795317892432, 46.70288888915173 ], [ 32.561369094742076, 46.706709766653589 ], [ 32.573432972692324, 46.709730594388105 ], [ 32.585870301334836, 46.711922143741354 ], [ 32.598560764871841, 46.713263206292652 ], [ 32.611381561615715, 46.713740802049081 ], [ 32.624208609307502, 46.713350306969012 ], [ 32.636917763760856, 46.712095498447269 ], [ 32.649386038169666, 46.709988518286174 ], [ 32.661492810408838, 46.707049753534982 ], [ 32.673121005807516, 46.703307636433181 ], [ 32.684158243180462, 46.698798365530621 ], [ 32.694497932359596, 46.693565550869501 ], [ 32.704040312066326, 46.687659786889142 ], [ 32.712693417693657, 46.681138157445083 ], [ 32.72037396941321, 46.674063678011599 ], [ 32.727008171969892, 46.666504680753249 ], [ 32.732532418560858, 46.658534148700532 ], [ 32.736893892296443, 46.650229005741032 ], [ 32.740051059893965, 46.641669369539244 ], [ 32.74197405344016, 46.632937774818714 ], [ 32.742644937260053, 46.624118374681679 ] ] ] } },
{ "type": "Feature", "properties": { "station": "Kherson", "support": "SWOT PIXC (V6)", "radius_km": 1.0 }, "geometry": { "type": "Polygon", "coordinates": [ [ [ 32.625087772049632, 46.623793547785269 ], [ 32.625030966169803, 46.622911269157619 ], [ 32.624848921013459, 46.622037074808262 ], [ 32.624543395644849, 46.621179383137807 ], [ 32.624117337866672, 46.620346453236792 ], [ 32.623574855622707, 46.619546305382642 ], [ 32.622921177252749, 46.618786643849745 ], [ 32.622162600989626, 46.618074782774144 ], [ 32.621306434190508, 46.617417575784167 ], [ 32.620360922892004, 46.616821350072634 ], [ 32.619335172370263, 46.61629184554188 ], [ 32.618239059472067, 46.615834159605186 ], [ 32.617083137560464, 46.615452698172895 ], [ 32.615878534987871, 46.615151133292343 ], [ 32.614636848070212, 46.614932367846755 ], [ 32.613370029587266, 46.614798507650782 ], [ 32.612090273876099, 46.614750841209414 ], [ 32.610809899616306, 46.614789827333531 ], [ 32.6095412314274, 46.614915090730712 ], [ 32.608296481409639, 46.615125425613115 ], [ 32.607087631760123, 46.615418807288108 ], [ 32.605926319586104, 46.615792411620824 ], [ 32.604823725016665, 46.61624264218252 ], [ 32.60379046368346, 46.61676516482536 ], [ 32.602836484599976, 46.617354949352745 ], [ 32.601970974418556, 46.618006317886781 ], [ 32.601202268984458, 46.618712999469814 ], [ 32.600537773037708, 46.619468190377475 ], [ 32.599983888836739, 46.62026461956512 ], [ 32.599545954393776, 46.621094618620681 ], [ 32.599228191920815, 46.621950195552721 ], [ 32.599033666988376, 46.622823111705706 ], [ 32.598964258797075, 46.623704961063538 ], [ 32.59902064185642, 46.624587251179321 ], [ 32.599202279255607, 46.625461484952801 ], [ 32.599507427600273, 46.626319242468355 ], [ 32.599933153576522, 46.627152262105049 ], [ 32.600475361991556, 46.627952520136937 ], [ 32.601128835028661, 46.628712308055604 ], [ 32.601887282345835, 46.629424306868039 ], [ 32.602743401541233, 46.630081657652774 ], [ 32.60368894840763, 46.630678027691062 ], [ 32.604714816302035, 46.631207671534135 ], [ 32.605811123867092, 46.631665486415059 ], [ 32.606967310258817, 46.632047061468185 ], [ 32.608172236960968, 46.632348720279829 ], [ 32.609414295201518, 46.632567556357053 ], [ 32.610681517930935, 46.632701461170818 ], [ 32.611961695277209, 46.632749144501567 ], [ 32.613242492357529, 46.632710146889316 ], [ 32.61451156830362, 46.632584844067985 ], [ 32.615756695345347, 46.632374443340474 ], [ 32.61696587679679, 46.63208097192981 ], [ 32.618127462799734, 46.631707257419343 ], [ 32.619230262702004, 46.631256900471875 ], [ 32.62026365298113, 46.630734240092195 ], [ 32.621217679668291, 46.630144311770025 ], [ 32.622083154281782, 46.629492798909261 ], [ 32.62285174234318, 46.628785978013894 ], [ 32.623516043623049, 46.628030658162025 ], [ 32.624069663343882, 46.627234115353552 ], [ 32.624507273657294, 46.62640402236692 ], [ 32.624824664807392, 46.625548374803252 ], [ 32.625018785493388, 46.624675414032481 ], [ 32.625087772049632, 46.623793547785269 ] ] ] } }
]
}
